QIANFAN-57              
1 62787U 25016C   26003.15571319  .00000225  00000+0  33001-3 0  9995
2 62787  88.9784 100.9921 0002579 105.2222 254.9214 13.50984133 50093
QIANFAN-58              
1 62788U 25016D   26003.12685956  .00000217  00000+0  31775-3 0  9993
2 62788  88.9754 100.8201 0012089 280.1487  79.8300 13.50985870 50138
QIANFAN-59              
1 62789U 25016E   26003.15152182  .00000223  00000+0  32641-3 0  9997
2 62789  88.9778 100.8963 0012435 284.5082  75.4689 13.50982190 50138
QIANFAN-60              
1 62790U 25016F   26003.18448929  .00000242  00000+0  35616-3 0  9995
2 62790  88.9759 100.8603 0013984 280.3443  79.6132 13.50991352 50123
QIANFAN-61              
1 62791U 25016G   26003.14327522  .00000216  00000+0  31661-3 0  9994
2 62791  88.9826 101.0420 0012928 279.7960  80.1731 13.50981690 50139
QIANFAN-62              
1 62792U 25016H   26003.14743571  .00000214  00000+0  31250-3 0  9993
2 62792  88.9773 100.8985 0014309 280.3089  79.6448 13.50984267 50129
QIANFAN-63              
1 62793U 25016J   26003.09801808  .00000220  00000+0  32222-3 0  9993
2 62793  88.9779 100.8565 0014343 286.4581  73.4994 13.50982434 50157
QIANFAN-64              
1 62794U 25016K   26003.13916668  .00000222  00000+0  32566-3 0  9993
2 62794  88.9766 100.8235 0012309 278.2427  81.7328 13.50985935 50158
